[{"OBJECT_NAME":"BRO-12","OBJECT_ID":"2024-043L","EPOCH":"2026-03-09T22:37:32.158848","MEAN_MOTION":14.96535251,"ECCENTRICITY":0.00077366,"INCLINATION":97.831,"RA_OF_ASC_NODE":199.8995,"ARG_OF_PERICENTER":330.9773,"MEAN_ANOMALY":29.1017,"EPHEMERIS_TYPE":0,"CLASSIFICATION_TYPE":"U","NORAD_CAT_ID":59108,"ELEMENT_SET_NO":999,"REV_AT_EPOCH":10979,"BSTAR":0.00015413906,"MEAN_MOTION_DOT":1.694e-5,"MEAN_MOTION_DDOT":0},{"OBJECT_NAME":"STARLINK-34546","OBJECT_ID":"2025-142Y","EPOCH":"2026-03-09T22:44:53.642112","MEAN_MOTION":14.98327234,"ECCENTRICITY":0.00023811,"INCLINATION":70.0017,"RA_OF_ASC_NODE":313.6364,"ARG_OF_PERICENTER":265.7036,"MEAN_ANOMALY":94.3851,"EPHEMERIS_TYPE":0,"CLASSIFICATION_TYPE":"U","NORAD_CAT_ID":64718,"ELEMENT_SET_NO":999,"REV_AT_EPOCH":3969,"BSTAR":0.00011740333,"MEAN_MOTION_DOT":1.308e-5,"MEAN_MOTION_DDOT":0}]
